STARLINK-36372          
1 67889U 26035L   26062.50001156 -.01033520  35490-3 -18654-2 0  9994
2 67889  97.2768 354.3576 0001138  80.5202 276.1261 16.01623184  2764
STARLINK-36363          
1 67890U 26035M   26062.50001156 -.01003857  33588-3 -18219-2 0  9999
2 67890  97.2772 354.3568 0001221 107.7052 246.2989 16.01522729  2768
STARLINK-36816          
1 67891U 26035N   26062.50001156 -.01086416  39572-3 -18057-2 0  9991
2 67891  97.2749 354.3770 0001061  96.3622 309.4489 16.03046695  2656
STARLINK-36813          
1 67892U 26035P   26062.50001156 -.01086534  39278-3 -18765-2 0  9992
2 67892  97.2750 354.3678 0001268 114.7300 269.1989 16.02390865  2762
STARLINK-36803          
1 67893U 26035Q   26062.50001156 -.01065233  37586-3 -19094-2 0  9992
2 67893  97.2768 354.3593 0001039  83.0724 277.7105 16.01747406  2763
STARLINK-36846          
1 67894U 26035R   26062.50001156 -.01084219  38937-3 -19180-2 0  9995
2 67894  97.2765 354.3628 0001186 107.2446 261.9629 16.01977433  2764
STARLINK-36866          
1 67895U 26035S   26062.50001156 -.01083832  38957-3 -19061-2 0  9996
2 67895  97.2764 354.3643 0001041  95.0496 277.8137 16.02078788  2766
STARLINK-36877          
1 67896U 26035T   26062.50001156 -.01084406  38902-3 -19303-2 0  9994
2 67896  97.2765 354.3609 0001061  74.6030 290.5690 16.01870115  2768
STARLINK-36870          
1 67897U 26035U   26062.50001156 -.01092620  39597-3 -19088-2 0  9993
2 67897  97.2760 354.3657 0001101  81.1922 295.8575 16.02194703  2768
STARLINK-36810          
1 67898U 26035V   26062.50001156 -.01082627  38968-3 -18815-2 0  9998
2 67898  97.2759 354.3670 0001318 113.9048 266.4686 16.02281917  2766
STARLINK-36878          
1 67899U 26035W   26062.50001156 -.01087695  39401-3 -18679-2 0  9990
2 67899  97.2757 354.3699 0001067  82.1848 304.7449 16.02488445  2760
STARLINK-36361          
1 67900U 26035X   26062.50001156 -.01077619  38773-3 -18399-2 0  9998
2 67900  97.2756 354.3716 0001025  77.7180 312.8085 16.02586520  2764
STARLINK-36336          
1 67901U 26035Y   26062.50001156 -.01092881  39956-3 -18284-2 0  9994
2 67901  97.2759 354.3763 0001157 123.8546 277.5474 16.02935738  2819
STARLINK-36876          
1 67902U 26035Z   26062.50001156 -.01087513  39482-3 -18451-2 0  9991
2 67902  97.2760 354.3736 0001377 117.6166 276.0398 16.02694362  2763
STARLINK-36257          
1 67903U 26035AA  26062.50001156 -.01089377  39659-3 -18366-2 0  9993
2 67903  97.2757 354.3742 0001145 101.0397 295.9035 16.02803606  2810
